{
  "links" : {
    "next" : "https://api.nasa.gov/neo/rest/v1/neo/browse?page=16&size=20&api_key=jqAGvNAwUIBu4fl9FSOjdm3V4F7hIglRzI6pdX9d",
    "prev" : "https://api.nasa.gov/neo/rest/v1/neo/browse?page=14&size=20&api_key=jqAGvNAwUIBu4fl9FSOjdm3V4F7hIglRzI6pdX9d",
    "self" : "https://api.nasa.gov/neo/rest/v1/neo/browse?page=15&size=20&api_key=jqAGvNAwUIBu4fl9FSOjdm3V4F7hIglRzI6pdX9d"
  },
  "page" : {
    "size" : 20,
    "total_elements" : 20750,
    "total_pages" : 1038,
    "number" : 15
  },
  "near_earth_objects" : [ {
    "links" : {
      "self" : "https://api.nasa.gov/neo/rest/v1/neo/3180186?api_key=jqAGvNAwUIBu4fl9FSOjdm3V4F7hIglRzI6pdX9d"
    },
    "neo_reference_id" : "3180186",
    "name" : "(2004 HS56)",
    "designation" : "2004 HS56",
    "nasa_jpl_url" : "http://ssd.jpl.nasa.gov/sbdb.cgi?sstr=3180186",
    "absolute_magnitude_h" : 22.4,
    "estimated_diameter" : {
      "kilometers" : {
        "estimated_diameter_min" : 0.0880146521,
        "estimated_diameter_max" : 0.1968067451
      },
      "meters" : {
        "estimated_diameter_min" : 88.0146520901,
        "estimated_diameter_max" : 196.8067450894
      },
      "miles" : {
        "estimated_diameter_min" : 0.0546897524,
        "estimated_diameter_max" : 0.122290004
      },
      "feet" : {
        "estimated_diameter_min" : 288.7619911632,
        "estimated_diameter_max" : 645.6914415591
      }
    },
    "is_potentially_hazardous_asteroid" : false,
    "close_approach_data" : [ {
      "close_approach_date" : "2004-05-01",
      "epoch_date_close_approach" : 1083394800000,
      "relative_velocity" : {
        "kilometers_per_second" : "16.8194405517",
        "kilometers_per_hour" : "60549.9859860746",
        "miles_per_hour" : "37623.4065700696"
      },
      "miss_distance" : {
        "astronomical" : "0.0362837848",
        "lunar" : "14.1143922806",
        "kilometers" : "5427977",
        "miles" : "3372788.5"
      },
      "orbiting_body" : "Earth"
    }, {
      "close_approach_date" : "2094-04-11",
      "epoch_date_close_approach" : 3921807600000,
      "relative_velocity" : {
        "kilometers_per_second" : "22.9849257829",
        "kilometers_per_hour" : "82745.7328183892",
        "miles_per_hour" : "51414.9804837375"
      },
      "miss_distance" : {
        "astronomical" : "0.4685707645",
        "lunar" : "182.2740325928",
        "kilometers" : "70097192",
        "miles" : "43556376"
      },
      "orbiting_body" : "Earth"
    } ],
    "orbital_data" : {
      "orbit_id" : "12",
      "orbit_determination_date" : "2017-04-06 09:12:50",
      "first_observation_date" : "2004-04-27",
      "last_observation_date" : "2004-05-06",
      "data_arc_in_days" : 9,
      "observations_used" : 68,
      "orbit_uncertainty" : "8",
      "minimum_orbit_intersection" : ".030773",
      "jupiter_tisserand_invariant" : "4.483",
      "epoch_osculation" : "2453124.5",
      "eccentricity" : ".2855083401628039",
      "semi_major_axis" : "1.441374012583699",
      "inclination" : "30.04315497993558",
      "ascending_node_longitude" : "41.75743002181511",
      "orbital_period" : "632.0674973992514",
      "perihelion_distance" : "1.029849710697127",
      "perihelion_argument" : "196.1330397095364",
      "aphelion_distance" : "1.852898314470272",
      "perihelion_time" : "2453141.431224276520",
      "mean_anomaly" : "350.3566616466958",
      "mean_motion" : ".5695594243989462",
      "equinox" : "J2000",
      "orbit_class" : {
        "orbit_class_type" : "AMO",
        "orbit_class_range" : "1.017 AU < q (perihelion) < 1.3 AU",
        "orbit_class_description" : "Near-Earth asteroid orbits similar to that of 1221 Amor"
      }
    },
    "is_sentry_object" : false
  }, {
    "links" : {
      "self" : "https://api.nasa.gov/neo/rest/v1/neo/3182164?api_key=jqAGvNAwUIBu4fl9FSOjdm3V4F7hIglRzI6pdX9d"
    },
    "neo_reference_id" : "3182164",
    "name" : "(2004 JB)",
    "designation" : "2004 JB",
    "nasa_jpl_url" : "http://ssd.jpl.nasa.gov/sbdb.cgi?sstr=3182164",
    "absolute_magnitude_h" : 22.5,
    "estimated_diameter" : {
      "kilometers" : {
        "estimated_diameter_min" : 0.0840533402,
        "estimated_diameter_max" : 0.1879489824
      },
      "meters" : {
        "estimated_diameter_min" : 84.0533402073,
        "estimated_diameter_max" : 187.9489824394
      },
      "miles" : {
        "estimated_diameter_min" : 0.0522283081,
        "estimated_diameter_max" : 0.1167860472
      },
      "feet" : {
        "estimated_diameter_min" : 275.7655606856,
        "estimated_diameter_max" : 616.6305395464
      }
    },
    "is_potentially_hazardous_asteroid" : false,
    "close_approach_data" : [ {
      "close_approach_date" : "2004-04-26",
      "epoch_date_close_approach" : 1082962800000,
      "relative_velocity" : {
        "kilometers_per_second" : "7.8288131786",
        "kilometers_per_hour" : "28183.7274430732",
        "miles_per_hour" : "17512.2721992807"
      },
      "miss_distance" : {
        "astronomical" : "0.2128116406",
        "lunar" : "82.7837219238",
        "kilometers" : "31836168",
        "miles" : "19782078"
      },
      "orbiting_body" : "Earth"
    } ],
    "orbital_data" : {
      "orbit_id" : "10",
      "orbit_determination_date" : "2017-04-06 09:12:50",
      "first_observation_date" : "2004-05-01",
      "last_observation_date" : "2004-05-30",
      "data_arc_in_days" : 29,
      "observations_used" : 25,
      "orbit_uncertainty" : "7",
      "minimum_orbit_intersection" : ".192334",
      "jupiter_tisserand_invariant" : "3.299",
      "epoch_osculation" : "2458600.5",
      "eccentricity" : ".5173195643968875",
      "semi_major_axis" : "2.401390708008352",
      "inclination" : "13.22931015241112",
      "ascending_node_longitude" : "57.91688491972621",
      "orbital_period" : "1359.229105519548",
      "perihelion_distance" : "1.159104312994738",
      "perihelion_argument" : "141.7422129701886",
      "aphelion_distance" : "3.643677103021966",
      "perihelion_time" : "2458538.187538145507",
      "mean_anomaly" : "16.50383013174447",
      "mean_motion" : ".2648560117923568",
      "equinox" : "J2000",
      "orbit_class" : {
        "orbit_class_type" : "AMO",
        "orbit_class_range" : "1.017 AU < q (perihelion) < 1.3 AU",
        "orbit_class_description" : "Near-Earth asteroid orbits similar to that of 1221 Amor"
      }
    },
    "is_sentry_object" : false
  }, {
    "links" : {
      "self" : "https://api.nasa.gov/neo/rest/v1/neo/3182180?api_key=jqAGvNAwUIBu4fl9FSOjdm3V4F7hIglRzI6pdX9d"
    },
    "neo_reference_id" : "3182180",
    "name" : "(2004 JO12)",
    "designation" : "2004 JO12",
    "nasa_jpl_url" : "http://ssd.jpl.nasa.gov/sbdb.cgi?sstr=3182180",
    "absolute_magnitude_h" : 23.8,
    "estimated_diameter" : {
      "kilometers" : {
        "estimated_diameter_min" : 0.046190746,
        "estimated_diameter_max" : 0.1032856481
      },
      "meters" : {
        "estimated_diameter_min" : 46.1907460282,
        "estimated_diameter_max" : 103.2856480504
      },
      "miles" : {
        "estimated_diameter_min" : 0.0287015901,
        "estimated_diameter_max" : 0.0641787064
      },
      "feet" : {
        "estimated_diameter_min" : 151.544447199,
        "estimated_diameter_max" : 338.8636855496
      }
    },
    "is_potentially_hazardous_asteroid" : false,
    "close_approach_data" : [ {
      "close_approach_date" : "1927-04-28",
      "epoch_date_close_approach" : -1346860800000,
      "relative_velocity" : {
        "kilometers_per_second" : "15.9970498836",
        "kilometers_per_hour" : "57589.3795810133",
        "miles_per_hour" : "35783.8008846579"
      },
      "miss_distance" : {
        "astronomical" : "0.2890096097",
        "lunar" : "112.4247360229",
        "kilometers" : "43235220",
        "miles" : "26865120"
      },
      "orbiting_body" : "Earth"
    }, {
      "close_approach_date" : "2004-05-12",
      "epoch_date_close_approach" : 1084345200000,
      "relative_velocity" : {
        "kilometers_per_second" : "12.2865369988",
        "kilometers_per_hour" : "44231.5331956811",
        "miles_per_hour" : "27483.7546126164"
      },
      "miss_distance" : {
        "astronomical" : "0.033625064",
        "lunar" : "13.0801496506",
        "kilometers" : "5030238",
        "miles" : "3125644.75"
      },
      "orbiting_body" : "Earth"
    } ],
    "orbital_data" : {
      "orbit_id" : "15",
      "orbit_determination_date" : "2017-04-06 09:12:46",
      "first_observation_date" : "2004-05-14",
      "last_observation_date" : "2004-05-23",
      "data_arc_in_days" : 9,
      "observations_used" : 55,
      "orbit_uncertainty" : "8",
      "minimum_orbit_intersection" : ".0332621",
      "jupiter_tisserand_invariant" : "4.671",
      "epoch_osculation" : "2453142.5",
      "eccentricity" : ".2552925548867975",
      "semi_major_axis" : "1.390278432803083",
      "inclination" : "21.70308804613073",
      "ascending_node_longitude" : "231.8288412430913",
      "orbital_period" : "598.757691588085",
      "perihelion_distance" : "1.035350699688771",
      "perihelion_argument" : "16.60916739351542",
      "aphelion_distance" : "1.745206165917394",
      "perihelion_time" : "2453153.457342737017",
      "mean_anomaly" : "353.4119537155944",
      "mean_motion" : ".6012448859657603",
      "equinox" : "J2000",
      "orbit_class" : {
        "orbit_class_type" : "AMO",
        "orbit_class_range" : "1.017 AU < q (perihelion) < 1.3 AU",
        "orbit_class_description" : "Near-Earth asteroid orbits similar to that of 1221 Amor"
      }
    },
    "is_sentry_object" : false
  } ]
}